[{"OBJECT_NAME":"STARLINK-30501","OBJECT_ID":"2023-147E","EPOCH":"2026-03-09T22:00:01.999584","MEAN_MOTION":15.26782053,"ECCENTRICITY":0.00024337,"INCLINATION":43.0008,"RA_OF_ASC_NODE":323.7294,"ARG_OF_PERICENTER":278.1889,"MEAN_ANOMALY":131.7473,"EPHEMERIS_TYPE":0,"CLASSIFICATION_TYPE":"U","NORAD_CAT_ID":57917,"ELEMENT_SET_NO":999,"REV_AT_EPOCH":578,"BSTAR":0.00027530446,"MEAN_MOTION_DOT":7.141e-5,"MEAN_MOTION_DDOT":0},{"OBJECT_NAME":"TIANMU-1 14","OBJECT_ID":"2023-205D","EPOCH":"2026-03-09T23:38:37.144032","MEAN_MOTION":15.2583937,"ECCENTRICITY":0.00072842,"INCLINATION":97.35,"RA_OF_ASC_NODE":91.4174,"ARG_OF_PERICENTER":335.7472,"MEAN_ANOMALY":24.3423,"EPHEMERIS_TYPE":0,"CLASSIFICATION_TYPE":"U","NORAD_CAT_ID":58648,"ELEMENT_SET_NO":999,"REV_AT_EPOCH":12237,"BSTAR":0.00030290643,"MEAN_MOTION_DOT":7.686e-5,"MEAN_MOTION_DDOT":0}]
